#dP2024 10 11 12  0  0.00000000      96 __u+U IGS20 EXT  IAC
## 2335 475200.00000000   900.00000000 60594 0.5000000000000
+   53   G02G03G04G05G06G07G08G09G10G11G12G13G14G15G16G17G18
+        G19G20G21G22G23G24G25G26G27G28G29G30G31G32R01R02R03
+        R04R05R07R08R09R11R12R14R15R16R17R18R19R20R21R22R24
+        R25R26  0  0  0  0  0  0  0  0  0  0  0  0  0  0  0
+          0  0  0  0  0  0  0  0  0  0  0  0  0  0  0  0  0
++         6  7  7  8  7  7  8  8  8  8  7  8  8  8  7  7  8
++         8  7  7  8  7  7  9  6  8  9  7  7  7  8  9  9  9
++         9  8  8  8  9 11 10  8  7  9  6  8  9  8  8  9  9
++         7  7  0  0  0  0  0  0  0  0  0  0  0  0  0  0  0
++         0  0  0  0  0  0  0  0  0  0  0  0  0  0  0  0  0
%c M  cc GPS ccc cccc cccc cccc cccc ccccc ccccc ccccc ccccc
%c cc cc ccc ccc cccc cccc cccc cccc ccccc ccccc ccccc ccccc
%f  0.0000000  0.000000000  0.00000000000  0.000000000000000
%f  0.0000000  0.000000000  0.00000000000  0.000000000000000
%i    0    0    0    0      0      0      0      0         0
%i    0    0    0    0      0      0      0      0         0
/* IAC                                ULTRA-RAPID PREDICTION
/* S/V CLOCKS ARE ALIGNED TO GNSS TIME                      
/* G:C1WC2W R:C1PC2P E:C1XC5X C:C2IC6I J:C1CC2S             
/* PCV:IGS20_2317 OL/AL:FES2004  NONE     YN ORB:CoN CLK:CoN
*  2024 10 12  3 30  0.00000000
PG02  13796.520815 -14533.104086  17728.970438   -338.972923
PG03  21841.497050 -12942.791437  -7776.200714    567.459195
PG04  12754.910156  -8603.391644 -21650.253801    460.121516
PG05 -24984.789757   3935.389640  -8397.108810   -189.505931
PG06  -6372.436049 -20287.931578 -15775.629054    -32.255583
PG07   6080.475920 -25499.303723  -1696.171243    -28.499472
PG08  20809.725255   1496.465125  16569.358933    381.607995
PG09   2624.067787 -16575.690568 -20664.491177    394.931771
PG10   7644.195916  12884.268957  22172.505045   -155.496526
PG11 -13908.173771  -6294.431900 -21703.810998   -743.194960
PG12 -24264.578421   9884.678059  -4478.809787   -544.514179
PG13 -20778.422521 -11115.937047  12254.367090    681.035701
PG14  -3321.599179 -15267.579485  21513.818728    515.617263
PG15 -20589.510183   1349.705903  16289.838662    214.718321
PG16  24072.325442   2376.303961 -11809.265188   -157.197826
PG17 -11109.144823 -21513.592933  11118.858162    598.387361
PG18  -6032.770156  25721.522795   -925.156955   -657.624489
PG19 -17454.861319 -20247.907733   1682.239817    549.418969
PG20 -19730.865534  -2942.326911 -17387.598405    369.761228
PG21  15146.543621  -7634.779302  20557.552126     99.949207
PG22 -11259.296784 -12317.748204  21002.523552    -70.253977
PG23  -7200.466642  16607.873387  19384.778553    339.759213
PG24 -14284.508284  12845.249216  17717.253333   -485.024862
PG25 -14882.782478  16627.011153 -14548.114423    499.543842
PG26  16111.950460   8720.298680 -19516.265774     57.886000
PG27  22592.965627  11579.554270   8217.323168    -34.498685
PG28   6306.033545  21808.871749 -13798.512463   -442.869311
PG29  -5738.156747  14904.741253 -21242.680886   -571.859030
PG30  -1158.735562 -25235.924017   7893.509450   -304.106248
PG31  12608.366339  11151.153387 -20694.769731   -223.514553
PG32  14139.911800  20604.348917   9513.609854   -587.725383
PR01 -11057.662538   7229.439776  21815.263934    100.746916
PR02   6663.515023  12933.571579  21010.259348    -25.123895
PR03  21138.779065  11777.681189   8215.287407    109.253754
PR04  23552.035411   4576.509687  -8672.608192    258.878991
PR05  13586.286564  -5189.469108 -20959.886815    139.012863
PR07 -21353.689650 -11595.825140  -7629.558050     92.748909
PR08 -23506.870060  -4102.772580   9008.742173     -6.415746
PR09   5600.745679 -17097.380967  18063.174192    214.203808
PR11 -18902.231355   6259.218320  15965.153560      9.498498
PR12 -18536.438919  17329.979168  -2507.651339     45.920601
PR14   9249.309784   6644.549884 -22810.573577     27.065010
PR15  19563.208768  -7413.044135 -14569.574765     74.974022
PR16  18532.026109 -17338.775801   2384.511461     29.869507
PR17   9918.442200  18405.929868  14589.506696    129.981683
PR18  10925.698836   2612.385615  22925.764713    166.461557
PR19   7688.385965 -12905.857879  20624.935939   -294.552023
PR20  -1595.916073 -25223.954482   3343.605460   -120.346131
PR21  -9478.931515 -19193.187083 -13894.805261   -142.031909
PR22 -11136.958406  -1431.174235 -22873.122903     23.317753
PR24   3002.404491  25166.433147  -2737.945104    -75.651088
PR25  -9505.435835 -18517.826764 -14755.055568    -92.805347
PR26 -23931.425908  -4908.103778   7381.634265     76.481526
*  2024 10 12  3 45  0.00000000
PG02  13787.361654 -12486.566074  19298.841529   -338.965551
PG03  22569.663514 -13027.919633  -4987.497032    567.469867
PG04  14575.930907  -6971.364896 -21093.932393    460.127662
PG05 -24072.077929   3324.775746 -10979.410274   -189.507043
PG06  -5948.769513 -21929.933592 -13593.931124    -32.280283
PG07   6333.460899 -25035.188292  -4528.478632    -28.496301
PG08  22139.822040   2707.893318  14628.724752    381.618526
PG09   4562.633264 -15177.969253 -21397.291277    394.946584
PG10   5318.329449  13770.712344  22291.005036   -155.508501
PG11 -13376.830714  -8696.980562 -21208.745858   -743.197742
PG12 -24644.916884   9738.272883  -1646.894926   -544.516573
PG13 -21519.067547 -12179.676942   9781.062546    681.037318
PG14  -1011.904363 -16052.558614  21151.083749    515.624832
PG15 -22070.618835    235.134376  14365.901374    214.722299
PG16  22757.965551   2933.087087 -14093.389560   -157.188774
PG17  -9973.080341 -20748.929786  13501.338462    598.375780
PG18  -6213.943101  25410.835242  -3804.806837   -657.625782
PG19 -17049.664362 -20137.306005   4494.366549    549.423211
PG20 -18021.154697  -4167.860733 -18931.835977    369.760912
PG21  15112.993066  -5290.130330  21413.575933     99.948479
PG22  -9006.175518 -13034.419160  21686.055552    -70.257042
PG23  -9206.764499  17321.223210  17827.580746    339.766576
PG24 -14350.746335  10626.919612  19084.711789   -485.023805
PG25 -16357.342306  16978.412400 -12313.166625    499.543780
PG26  14126.169189   9799.492797 -20491.385861     57.877610
PG27  23094.553542  12255.425845   5533.776913    -34.498926
PG28   5923.955115  23216.426474 -11472.884677   -442.880995
PG29  -7556.872778  13260.604712 -21769.076418   -571.856630
PG30   -720.781555 -25917.737972   5209.416084   -304.099614
PG31  12095.074614  13366.613623 -19616.114521   -223.514102
PG32  13078.586012  20020.074424  11992.769248   -587.721464
PR01 -13583.875018   6545.023504  20569.876069    100.748035
PR02   4170.508852  12020.344191  22159.656703    -25.124067
PR03  20058.674123  11262.965253  11134.212822    109.254427
PR04  24444.970806   4696.525248  -5604.351159    258.880561
PR05  15972.489083  -4467.911790 -19387.408576    139.013294
PR07 -20324.511431 -11103.858937 -10590.293353     92.749449
PR08 -24426.568203  -4243.032755   5960.332844     -6.415678
PR09   7070.485633 -18592.358209  15936.863607    214.205736
PR11 -17287.552066   4911.935152  18120.784490      9.497570
PR12 -18532.134175  17505.661218    696.356995     45.921070
PR14   7173.439834   8558.696814 -22921.329802     27.065068
PR15  18059.462265  -6175.650278 -16899.323708     74.973686
PR16  18499.167594 -17515.044177   -831.610568     29.869744
PR17  10394.486322  19980.444337  11940.090708    129.984582
PR18  11495.359239   5333.607548  22165.492083    166.463342
PR19   8012.557140 -10296.353078  21927.318221   -294.553239
PR20  -1711.986548 -24590.365567   6516.812223   -120.346718
PR21  -9941.440853 -20680.703804 -11175.018578   -142.034726
PR22 -11623.828916  -4182.586072 -22286.137342     23.308062
PR24   3037.933844  24611.808333  -5896.290347    -75.652312
PR25  -9893.918869 -20137.161494 -12152.954737    -92.802118
PR26 -24663.147187  -4973.969729   4266.481232     76.507256
EOF
